{
  "type": "FeatureCollection",
  "features": [
    {
      "type": "Feature",
      "properties": {
        "norad_id": 34497,
        "name": "IRIDIUM 33 DEB",
        "group": "iridium-33-debris",
        "lat": 85.03619383725498,
        "lon": 178.0021383498986,
        "alt_km": 844.6646326136142,
        "timestamp": "2025-12-26T09:30:54.024361+00:00",
        "meta_object_name": "IRIDIUM 33 DEB",
        "meta_object_id": "1997-051GN",
        "meta_epoch": "2025-12-22T21:33:03.136608",
        "meta_mean_motion": 14.27482363,
        "meta_eccentricity": 0.00780484,
        "meta_inclination": 86.2769,
        "meta_ra_of_asc_node": 48.0617,
        "meta_arg_of_pericenter": 306.2683,
        "meta_mean_anomaly": 179.2919,
        "meta_ephemeris_type": 0,
        "meta_classification_type": "U",
        "meta_norad_cat_id": 34497,
        "meta_element_set_no": 999,
        "meta_rev_at_epoch": 87028,
        "meta_bstar": 0.00056228088,
        "meta_mean_motion_dot": 1.443e-05,
        "meta_mean_motion_ddot": 0,
        "tle_line1": "1 34497U 97051GN  25356.89795297  .00001443  00000+0  56228-3 0  9993",
        "tle_line2": "2 34497  86.2769  48.0617 0078048 306.2683 179.2919 14.27482363870281"
      },
      "geometry": {
        "type": "Point",
        "coordinates": [
          178.0021383498986,
          85.03619383725498
        ]
      }
    },
    {
      "type": "Feature",
      "properties": {
        "norad_id": 34508,
        "name": "IRIDIUM 33 DEB",
        "group": "iridium-33-debris",
        "lat": 70.18480183812463,
        "lon": 107.00041160357044,
        "alt_km": 731.622934382146,
        "timestamp": "2025-12-26T09:30:54.024371+00:00",
        "meta_object_name": "IRIDIUM 33 DEB",
        "meta_object_id": "1997-051GZ",
        "meta_epoch": "2025-12-25T16:29:37.440096",
        "meta_mean_motion": 14.38522285,
        "meta_eccentricity": 0.00666774,
        "meta_inclination": 86.3701,
        "meta_ra_of_asc_node": 97.1541,
        "meta_arg_of_pericenter": 131.4809,
        "meta_mean_anomaly": 229.2141,
        "meta_ephemeris_type": 0,
        "meta_classification_type": "U",
        "meta_norad_cat_id": 34508,
        "meta_element_set_no": 999,
        "meta_rev_at_epoch": 87495,
        "meta_bstar": 0.0012253995,
        "meta_mean_motion_dot": 3.862e-05,
        "meta_mean_motion_ddot": 0,
        "tle_line1": "1 34508U 97051GZ  25359.68723889  .00003862  00000+0  12254-2 0  9991",
        "tle_line2": "2 34508  86.3701  97.1541 0066677 131.4809 229.2141 14.38522285874956"
      },
      "geometry": {
        "type": "Point",
        "coordinates": [
          107.00041160357044,
          70.18480183812463
        ]
      }
    },
    {
      "type": "Feature",
      "properties": {
        "norad_id": 34521,
        "name": "IRIDIUM 33 DEB",
        "group": "iridium-33-debris",
        "lat": 33.283372436189055,
        "lon": 26.916545171498548,
        "alt_km": 681.4845921636561,
        "timestamp": "2025-12-26T09:30:54.024382+00:00",
        "meta_object_name": "IRIDIUM 33 DEB",
        "meta_object_id": "1997-051HN",
        "meta_epoch": "2025-12-26T02:47:56.394816",
        "meta_mean_motion": 14.63475701,
        "meta_eccentricity": 0.0003278,
        "meta_inclination": 86.3789,
        "meta_ra_of_asc_node": 24.6572,
        "meta_arg_of_pericenter": 163.8384,
        "meta_mean_anomaly": 196.2933,
        "meta_ephemeris_type": 0,
        "meta_classification_type": "U",
        "meta_norad_cat_id": 34521,
        "meta_element_set_no": 999,
        "meta_rev_at_epoch": 88668,
        "meta_bstar": 0.00084543,
        "meta_mean_motion_dot": 4.399e-05,
        "meta_mean_motion_ddot": 0,
        "tle_line1": "1 34521U 97051HN  25360.11662494  .00004399  00000+0  84543-3 0  9997",
        "tle_line2": "2 34521  86.3789  24.6572 0003278 163.8384 196.2933 14.63475701886684"
      },
      "geometry": {
        "type": "Point",
        "coordinates": [
          26.916545171498548,
          33.283372436189055
        ]
      }
    },
    {
      "type": "Feature",
      "properties": {
        "norad_id": 34525,
        "name": "IRIDIUM 33 DEB",
        "group": "iridium-33-debris",
        "lat": -73.5588559447372,
        "lon": 28.596772797792347,
        "alt_km": 759.4427553336018,
        "timestamp": "2025-12-26T09:30:54.024392+00:00",
        "meta_object_name": "IRIDIUM 33 DEB",
        "meta_object_id": "1997-051HS",
        "meta_epoch": "2025-12-26T03:27:06.511104",
        "meta_mean_motion": 14.42936205,
        "meta_eccentricity": 0.0006176,
        "meta_inclination": 86.3716,
        "meta_ra_of_asc_node": 41.1217,
        "meta_arg_of_pericenter": 64.0766,
        "meta_mean_anomaly": 350.5685,
        "meta_ephemeris_type": 0,
        "meta_classification_type": "U",
        "meta_norad_cat_id": 34525,
        "meta_element_set_no": 999,
        "meta_rev_at_epoch": 88281,
        "meta_bstar": 0.00033086,
        "meta_mean_motion_dot": 1.126e-05,
        "meta_mean_motion_ddot": 0,
        "tle_line1": "1 34525U 97051HS  25360.14382536  .00001126  00000+0  33086-3 0  9991",
        "tle_line2": "2 34525  86.3716  41.1217 0006176  64.0766 350.5685 14.42936205882812"
      },
      "geometry": {
        "type": "Point",
        "coordinates": [
          28.596772797792347,
          -73.5588559447372
        ]
      }
    },
    {
      "type": "Feature",
      "properties": {
        "norad_id": 34529,
        "name": "IRIDIUM 33 DEB",
        "group": "iridium-33-debris",
        "lat": 67.61408203266451,
        "lon": 38.47294388524148,
        "alt_km": 748.4235845223029,
        "timestamp": "2025-12-26T09:30:54.024402+00:00",
        "meta_object_name": "IRIDIUM 33 DEB",
        "meta_object_id": "1997-051HW",
        "meta_epoch": "2025-12-25T13:11:48.680736",
        "meta_mean_motion": 14.40626161,
        "meta_eccentricity": 0.0006214,
        "meta_inclination": 86.3628,
        "meta_ra_of_asc_node": 29.95,
        "meta_arg_of_pericenter": 140.827,
        "meta_mean_anomaly": 219.338,
        "meta_ephemeris_type": 0,
        "meta_classification_type": "U",
        "meta_norad_cat_id": 34529,
        "meta_element_set_no": 999,
        "meta_rev_at_epoch": 88326,
        "meta_bstar": 0.00012953,
        "meta_mean_motion_dot": 4.33e-06,
        "meta_mean_motion_ddot": 0,
        "tle_line1": "1 34529U 97051HW  25359.54986899  .00000433  00000+0  12953-3 0  9999",
        "tle_line2": "2 34529  86.3628  29.9500 0006214 140.8270 219.3380 14.40626161883262"
      },
      "geometry": {
        "type": "Point",
        "coordinates": [
          38.47294388524148,
          67.61408203266451
        ]
      }
    },
    {
      "type": "Feature",
      "properties": {
        "norad_id": 34538,
        "name": "IRIDIUM 33 DEB",
        "group": "iridium-33-debris",
        "lat": 6.770066105857249,
        "lon": 0.01618040918989162,
        "alt_km": 749.993804808898,
        "timestamp": "2025-12-26T09:30:54.024413+00:00",
        "meta_object_name": "IRIDIUM 33 DEB",
        "meta_object_id": "1997-051JF",
        "meta_epoch": "2025-12-24T17:48:32.243904",
        "meta_mean_motion": 14.42715706,
        "meta_eccentricity": 0.00319126,
        "meta_inclination": 86.2764,
        "meta_ra_of_asc_node": 0.2977,
        "meta_arg_of_pericenter": 286.3391,
        "meta_mean_anomaly": 132.9527,
        "meta_ephemeris_type": 0,
        "meta_classification_type": "U",
        "meta_norad_cat_id": 34538,
        "meta_element_set_no": 999,
        "meta_rev_at_epoch": 87929,
        "meta_bstar": 0.00092856968,
        "meta_mean_motion_dot": 3.127e-05,
        "meta_mean_motion_ddot": 0,
        "tle_line1": "1 34538U 97051JF  25358.74203986  .00003127  00000+0  92857-3 0  9993",
        "tle_line2": "2 34538  86.2764   0.2977 0031912 286.3391 132.9527 14.42715706879292"
      },
      "geometry": {
        "type": "Point",
        "coordinates": [
          0.01618040918989162,
          6.770066105857249
        ]
      }
    },
    {
      "type": "Feature",
      "properties": {
        "norad_id": 34540,
        "name": "IRIDIUM 33 DEB",
        "group": "iridium-33-debris",
        "lat": -53.463379278485895,
        "lon": 126.35770978328185,
        "alt_km": 656.7170424120923,
        "timestamp": "2025-12-26T09:30:54.024423+00:00",
        "meta_object_name": "IRIDIUM 33 DEB",
        "meta_object_id": "1997-051JH",
        "meta_epoch": "2025-12-25T21:20:32.965152",
        "meta_mean_motion": 14.7558704,
        "meta_eccentricity": 0.0018381,
        "meta_inclination": 86.3113,
        "meta_ra_of_asc_node": 301.5947,
        "meta_arg_of_pericenter": 115.6861,
        "meta_mean_anomaly": 305.1925,
        "meta_ephemeris_type": 0,
        "meta_classification_type": "U",
        "meta_norad_cat_id": 34540,
        "meta_element_set_no": 999,
        "meta_rev_at_epoch": 89215,
        "meta_bstar": 0.0015794,
        "meta_mean_motion_dot": 0.00010827,
        "meta_mean_motion_ddot": 0,
        "tle_line1": "1 34540U 97051JH  25359.88927043  .00010827  00000+0  15794-2 0  9998",
        "tle_line2": "2 34540  86.3113 301.5947 0018381 115.6861 305.1925 14.75587040892159"
      },
      "geometry": {
        "type": "Point",
        "coordinates": [
          126.35770978328185,
          -53.463379278485895
        ]
      }
    }
  ]
}